CTC2_L_00667001-01
1 58185U 25565NV  26070.40853009  .00000000  00000+0  00000-0 0  9993
2 58185  65.0000   0.0000 0000000   0.0000   0.0000  2.02645322    17
CTC2_L_00667001-02
1 58186U 25841SX  26070.40853009  .00000000  00000+0  00000-0 0  9991
2 58186  65.0000   0.0000 0000000   0.0000  36.0000  2.02645322    17
CTC2_L_00667001-03
1 58187U 24706XA  26070.40853009  .00000000  00000+0  00000-0 0  9991
2 58187  65.0000   0.0000 0000000   0.0000  72.0000  2.02645322    18
CTC2_L_00667001-04
1 58188U 24626JE  26070.40853009  .00000000  00000+0  00000-0 0  9993
2 58188  65.0000   0.0000 0000000   0.0000 108.0000  2.02645322    19
CTC2_L_00667001-05
1 58189U 26874GL  26070.40853009  .00000000  00000+0  00000-0 0  9991
2 58189  65.0000   0.0000 0000000   0.0000 144.0000  2.02645322    10
CTC2_L_00667001-06
1 58190U 26426EV  26070.40853009  .00000000  00000+0  00000-0 0  9996
2 58190  65.0000   0.0000 0000000   0.0000 180.0000  2.02645322    12
CTC2_L_00667001-07
1 58191U 24165MG  26070.40853009  .00000000  00000+0  00000-0 0  9995
2 58191  65.0000   0.0000 0000000   0.0000 216.0000  2.02645322    13
CTC2_L_00667001-08
1 58192U 24679SX  26070.40853009  .00000000  00000+0  00000-0 0  9996
2 58192  65.0000   0.0000 0000000   0.0000 252.0000  2.02645322    14
CTC2_L_00667001-09
1 58193U 22193GQ  26070.40853009  .00000000  00000+0  00000-0 0  9996
2 58193  65.0000   0.0000 0000000   0.0000 288.0000  2.02645322    14
CTC2_L_00667001-10
1 58194U 23851YO  26070.40853009  .00000000  00000+0  00000-0 0  9999
2 58194  65.0000   0.0000 0000000   0.0000 324.0000  2.02645322    16
CTC2_L_00667002-01
1 58195U 22112PE  26070.40853009  .00000000  00000+0  00000-0 0  9999
2 58195  65.0000  30.0000 0000000   0.0000  12.0000  2.02645322    14
CTC2_L_00667002-02
1 58196U 23466VG  26070.40853009  .00000000  00000+0  00000-0 0  9993
2 58196  65.0000  30.0000 0000000   0.0000  48.0000  2.02645322    14
CTC2_L_00667002-03
1 58197U 23670WY  26070.40853009  .00000000  00000+0  00000-0 0  9991
2 58197  65.0000  30.0000 0000000   0.0000  84.0000  2.02645322    15
CTC2_L_00667002-04
1 58198U 22881OZ  26070.40853009  .00000000  00000+0  00000-0 0  9995
2 58198  65.0000  30.0000 0000000   0.0000 120.0000  2.02645322    17
CTC2_L_00667002-05
1 58199U 26132UQ  26070.40853009  .00000000  00000+0  00000-0 0  9999
2 58199  65.0000  30.0000 0000000   0.0000 156.0000  2.02645322    17
CTC2_L_00667002-06
1 58200U 24267NQ  26070.40853009  .00000000  00000+0  00000-0 0  9999
2 58200  65.0000  30.0000 0000000   0.0000 192.0000  2.02645322    10
CTC2_L_00667002-07
1 58201U 24779DX  26070.40853009  .00000000  00000+0  00000-0 0  9998
2 58201  65.0000  30.0000 0000000   0.0000 228.0000  2.02645322    11
CTC2_L_00667002-08
1 58202U 24689XX  26070.40853009  .00000000  00000+0  00000-0 0  9999
2 58202  65.0000  30.0000 0000000   0.0000 264.0000  2.02645322    12
CTC2_L_00667002-09
1 58203U 24889IA  26070.40853009  .00000000  00000+0  00000-0 0  9992
2 58203  65.0000  30.0000 0000000   0.0000 300.0000  2.02645322    14
CTC2_L_00667002-10
1 58204U 25683DG  26070.40853009  .00000000  00000+0  00000-0 0  9996
2 58204  65.0000  30.0000 0000000   0.0000 336.0000  2.02645322    14
CTC2_L_00667003-01
1 58205U 23549VJ  26070.40853009  .00000000  00000+0  00000-0 0  9996
2 58205  65.0000  60.0000 0000000   0.0000  24.0000  2.02645322    12
CTC2_L_00667003-02
1 58206U 25361HD  26070.40853009  .00000000  00000+0  00000-0 0  9991
2 58206  65.0000  60.0000 0000000   0.0000  60.0000  2.02645322    13
CTC2_L_00667003-03
1 58207U 23358TW  26070.40853009  .00000000  00000+0  00000-0 0  9996
2 58207  65.0000  60.0000 0000000   0.0000  96.0000  2.02645322    13
CTC2_L_00667003-04
1 58208U 25326QU  26070.40853009  .00000000  00000+0  00000-0 0  9994
2 58208  65.0000  60.0000 0000000   0.0000 132.0000  2.02645322    15
CTC2_L_00667003-05
1 58209U 24437HW  26070.40853009  .00000000  00000+0  00000-0 0  9997
2 58209  65.0000  60.0000 0000000   0.0000 168.0000  2.02645322    15
CTC2_L_00667003-06
1 58210U 22732BM  26070.40853009  .00000000  00000+0  00000-0 0  9995
2 58210  65.0000  60.0000 0000000   0.0000 204.0000  2.02645322    18
CTC2_L_00667003-07
1 58211U 26987FZ  26070.40853009  .00000000  00000+0  00000-0 0  9992
2 58211  65.0000  60.0000 0000000   0.0000 240.0000  2.02645322    19
CTC2_L_00667003-08
1 58212U 26720PJ  26070.40853009  .00000000  00000+0  00000-0 0  9998
2 58212  65.0000  60.0000 0000000   0.0000 276.0000  2.02645322    19
CTC2_L_00667003-09
1 58213U 25997H   26070.40853009  .00000000  00000+0  00000-0 0  9994
2 58213  65.0000  60.0000 0000000   0.0000 312.0000  2.02645322    11
CTC2_L_00667003-10
1 58214U 22267DN  26070.40853009  .00000000  00000+0  00000-0 0  9992
2 58214  65.0000  60.0000 0000000   0.0000 348.0000  2.02645322    11
CTC2_L_00667004-01
1 58215U 22400MC  26070.40853009  .00000000  00000+0  00000-0 0  9992
2 58215  65.0000  90.0000 0000000   0.0000  36.0000  2.02645322    19
CTC2_L_00667004-02
1 58216U 26442CT  26070.40853009  .00000000  00000+0  00000-0 0  9993
2 58216  65.0000  90.0000 0000000   0.0000  72.0000  2.02645322    10
CTC2_L_00667004-03
1 58217U 23048TX  26070.40853009  .00000000  00000+0  00000-0 0  9993
2 58217  65.0000  90.0000 0000000   0.0000 108.0000  2.02645322    11
CTC2_L_00667004-04
1 58218U 23251WE  26070.40853009  .00000000  00000+0  00000-0 0  9990
2 58218  65.0000  90.0000 0000000   0.0000 144.0000  2.02645322    12
CTC2_L_00667004-05
1 58219U 22786AS  26070.40853009  .00000000  00000+0  00000-0 0  9993
2 58219  65.0000  90.0000 0000000   0.0000 180.0000  2.02645322    13
CTC2_L_00667004-06
1 58220U 24502OI  26070.40853009  .00000000  00000+0  00000-0 0  9993
2 58220  65.0000  90.0000 0000000   0.0000 216.0000  2.02645322    15
CTC2_L_00667004-07
1 58221U 22884KK  26070.40853009  .00000000  00000+0  00000-0 0  9995
2 58221  65.0000  90.0000 0000000   0.0000 252.0000  2.02645322    16
CTC2_L_00667004-08
1 58222U 24015H   26070.40853009  .00000000  00000+0  00000-0 0  9994
2 58222  65.0000  90.0000 0000000   0.0000 288.0000  2.02645322    16
CTC2_L_00667004-09
1 58223U 24545QH  26070.40853009  .00000000  00000+0  00000-0 0  9993
2 58223  65.0000  90.0000 0000000   0.0000 324.0000  2.02645322    18
CTC2_L_00667004-10
1 58224U 26630H   26070.40853009  .00000000  00000+0  00000-0 0  9991
2 58224  65.0000  90.0000 0000000   0.0000   0.0000  2.02645322    10
CTC2_L_00667005-01
1 58225U 24559XQ  26070.40853009  .00000000  00000+0  00000-0 0  9990
2 58225  65.0000 120.0000 0000000   0.0000  48.0000  2.02645322    17
CTC2_L_00667005-02
1 58226U 26303M   26070.40853009  .00000000  00000+0  00000-0 0  9990
2 58226  65.0000 120.0000 0000000   0.0000  84.0000  2.02645322    18
CTC2_L_00667005-03
1 58227U 23293EJ  26070.40853009  .00000000  00000+0  00000-0 0  9996
2 58227  65.0000 120.0000 0000000   0.0000 120.0000  2.02645322    10
CTC2_L_00667005-04
1 58228U 23141WF  26070.40853009  .00000000  00000+0  00000-0 0  9999
2 58228  65.0000 120.0000 0000000   0.0000 156.0000  2.02645322    10
CTC2_L_00667005-05
1 58229U 24583XK  26070.40853009  .00000000  00000+0  00000-0 0  9991
2 58229  65.0000 120.0000 0000000   0.0000 192.0000  2.02645322    11
CTC2_L_00667005-06
1 58230U 26282PF  26070.40853009  .00000000  00000+0  00000-0 0  9991
2 58230  65.0000 120.0000 0000000   0.0000 228.0000  2.02645322    13
CTC2_L_00667005-07
1 58231U 25415YA  26070.40853009  .00000000  00000+0  00000-0 0  9999
2 58231  65.0000 120.0000 0000000   0.0000 264.0000  2.02645322    14
CTC2_L_00667005-08
1 58232U 22325CK  26070.40853009  .00000000  00000+0  00000-0 0  9997
2 58232  65.0000 120.0000 0000000   0.0000 300.0000  2.02645322    16
CTC2_L_00667005-09
1 58233U 24270TT  26070.40853009  .00000000  00000+0  00000-0 0  9999
2 58233  65.0000 120.0000 0000000   0.0000 336.0000  2.02645322    16
CTC2_L_00667005-10
1 58234U 26735FE  26070.40853009  .00000000  00000+0  00000-0 0  9998
2 58234  65.0000 120.0000 0000000   0.0000  12.0000  2.02645322    18
CTC2_L_00667006-01
1 58235U 23201VW  26070.40853009  .00000000  00000+0  00000-0 0  9994
2 58235  65.0000 150.0000 0000000   0.0000  60.0000  2.02645322    15
CTC2_L_00667006-02
1 58236U 25596WH  26070.40853009  .00000000  00000+0  00000-0 0  9994
2 58236  65.0000 150.0000 0000000   0.0000  96.0000  2.02645322    15
CTC2_L_00667006-03
1 58237U 26370RB  26070.40853009  .00000000  00000+0  00000-0 0  9996
2 58237  65.0000 150.0000 0000000   0.0000 132.0000  2.02645322    17
CTC2_L_00667006-04
1 58238U 26328QR  26070.40853009  .00000000  00000+0  00000-0 0  9990
2 58238  65.0000 150.0000 0000000   0.0000 168.0000  2.02645322    17
CTC2_L_00667006-05
1 58239U 25435SW  26070.40853009  .00000000  00000+0  00000-0 0  9999
2 58239  65.0000 150.0000 0000000   0.0000 204.0000  2.02645322    19
CTC2_L_00667006-06
1 58240U 22738UP  26070.40853009  .00000000  00000+0  00000-0 0  9994
2 58240  65.0000 150.0000 0000000   0.0000 240.0000  2.02645322    11
CTC2_L_00667006-07
1 58241U 26886IP  26070.40853009  .00000000  00000+0  00000-0 0  9993
2 58241  65.0000 150.0000 0000000   0.0000 276.0000  2.02645322    11
CTC2_L_00667006-08
1 58242U 23128ZG  26070.40853009  .00000000  00000+0  00000-0 0  9990
2 58242  65.0000 150.0000 0000000   0.0000 312.0000  2.02645322    13
CTC2_L_00667006-09
1 58243U 26690EH  26070.40853009  .00000000  00000+0  00000-0 0  9998
2 58243  65.0000 150.0000 0000000   0.0000 348.0000  2.02645322    13
CTC2_L_00667006-10
1 58244U 23573ME  26070.40853009  .00000000  00000+0  00000-0 0  9996
2 58244  65.0000 150.0000 0000000   0.0000  24.0000  2.02645322    15
CTC2_L_00667007-01
1 58245U 25752UR  26070.40853009  .00000000  00000+0  00000-0 0  9998
2 58245  65.0000 180.0000 0000000   0.0000  72.0000  2.02645322    12
CTC2_L_00667007-02
1 58246U 22196OV  26070.40853009  .00000000  00000+0  00000-0 0  9998
2 58246  65.0000 180.0000 0000000   0.0000 108.0000  2.02645322    13
